KUIPER-00152            
1 65772U 25217L   25358.00001157 -.00854969  00000+0 -37808-1 0  9990
2 65772  51.8828  10.0172 0002710  50.7562  54.5385 15.24003246  4288
KUIPER-00153            
1 65773U 25217M   25357.80779758  .00013531  00000+0  80676-3 0  9990
2 65773  51.8791  20.6917 0013500  58.6046 301.6248 15.11367430 13610
KUIPER-00155            
1 65774U 25217N   25356.44879056  .00040751  00000+0  10877-2 0  9991
2 65774  51.8674  17.7562 0008515  53.8047 306.3726 15.37685901 13530
KUIPER-00156            
1 65775U 25217P   25358.00001157 -.00950238  00000+0 -27129-1 0  9994
2 65775  51.8713   9.3715 0004082  47.4341 357.9606 15.38233296  4618
KUIPER-00158            
1 65776U 25217Q   25358.00001157  .00015118  00000+0  19021-2 0  9995
2 65776  51.8972  20.3379 0002245 125.7872 320.5467 14.82200686  5070
KUIPER-00163            
1 65777U 25217R   25358.00001157  .00034151  00000+0  46574-2 0  9997
2 65777  51.8976  22.7429 0001114  48.5901 103.1111 14.78348272  5784
KUIPER-00165            
1 65778U 25217S   25358.00001157  .00037318  00000+0  24143-2 0  9994
2 65778  51.8889  12.4977 0006064  60.1868 184.8562 15.07816058  3759
KUIPER-00166            
1 65779U 25217T   25358.00001157  .00064415  00000+0  17068-2 0  9991
2 65779  51.8705   9.5591 0004363  38.4895 273.8248 15.37731772  4487
